Market Name,City,State,Zip Code,Market Tier,Sub-Market,Lat,Long
Banning,Banning,CA,92220,C,The Pass,33.925569,-116.875289
Beaumont | East,Beaumont,CA,92223,C,The Pass,33.946834,-116.95
Beaumont | West,Beaumont,CA,92223,C,The Pass,33.960835,-117.05
Calimesa,Calimesa,CA,92320,B,The Pass,34.003904,-117.061977
Cherry Valley,Cherry Valley,CA,92223,B,The Pass,33.979566,-116.970584
Chino,Chino,CA,91710,A,Northwest,34.013356,-117.690075
Chino Hills,Chino Hills,CA,91709,A,Northwest,33.99268,-117.760056
Colton,Colton,CA,92324,C,North,34.073902,-117.313655
Corona,Corona,CA,92882,A,Northwest,33.875295,-117.566445
Eastvale,Eastvale,CA,92880,A,Northwest,33.97668,-117.559844
Etiwanda,Etiwanda,CA,91739,A,North,34.127929,-117.521668
Fontana | North,Fontana,CA,92336,B,North,34.133412,-117.45
Fontana | South,Fontana,CA,92337,B,North,34.061709,-117.45
French Valley,French Valley,CA,92563,B,Temecula Valley,33.59941,-117.109172
Grand Terrace,Grand Terrace,CA,92313,A,North,34.032303,-117.314692
Hemet,Hemet,CA,92545,C,East Valley,33.778562,-117.035767
Highland,Highland,CA,92346,C,North,34.128344,-117.208651
Jurupa Valley,Jurupa Valley,CA,92509,B,Central,33.979847,-117.451575
Lake Elsinore | East,Lake Elsinore,CA,92595,C,Central Valley,33.662155,-117.29
Lake Elsinore | West,Lake Elsinore,CA,92530,C,Central Valley,33.694187,-117.38
Loma Linda,Loma Linda,CA,92354,B,North,34.075626,-117.252048
Menifee | North,Menifee,CA,92586,C,Central Valley,33.700987,-117.18
Menifee | South,Menifee,CA,92584,C,Central Valley,33.62718,-117.16
Montclair,Montclair,CA,91763,A,Northwest,34.07751,-117.689778
Moreno Valley,Moreno Valley,CA,92555,B,Central,33.937517,-117.230594
Murrieta,Murrieta,CA,92562,A,Temecula Valley,33.560832,-117.210656
Ontario,Ontario,CA,91761,A,Northwest,34.034544,-117.610133
Perris,Perris,CA,92570,C,Central Valley,33.782519,-117.228648
Rancho Cucamonga,Rancho Cucamonga,CA,91701,A,Northwest,34.103319,-117.575174
Redlands,Redlands,CA,92373,B,North,34.055735,-117.188896
Rialto,Rialto,CA,92376,C,Central,34.1064,-117.370324
Riverside | East,Riverside,CA,92506,B,Central,33.955902,-117.34
Riverside | West,Riverside,CA,92503,A,Central,33.927767,-117.45
Romoland,Romoland,CA,92585,C,Central Valley,33.743253,-117.162662
San Bernardino,San Bernardino,CA,92401,B,North,34.108345,-117.289765
San Jacinto,San Jacinto,CA,92582,C,East Valley,33.783966,-116.958909
South Corona,South Corona,CA,92883,B,Northwest,33.773546,-117.489269
Temecula,Temecula,CA,92591,A,Temecula Valley,33.494635,-117.147366
Upland,Upland,CA,91785,A,Northwest,34.09751,-117.648388
Wildomar,Wildomar,CA,92532,B,Temecula Valley,33.593937,-117.241499
Winchester,Winchester,CA,92596,C,Central Valley,33.719382,-117.063285
Yucaipa,Yucaipa,CA,92399,B,The Pass,34.040931,-117.051671
